CTC1_L_00021016-03
1 10062U 25099AH  26075.70028935  .00000000  00000+0  00000-0 0  9997
2 10062  75.0000 180.0000 0000000   0.0000   0.0000 15.80155680    12
CTC1_L_00021016-04
1 10063U 22465FP  26075.70028935  .00000000  00000+0  00000-0 0  9992
2 10063  75.0000 180.0000 0000000   0.0000  90.0000 15.80155680    12
CTC1_L_00021017-01
1 10064U 22227FO  26075.70028935  .00000000  00000+0  00000-0 0  9999
2 10064  75.0000 192.0000 0000000   0.0000 192.0000 15.80155680    19
CTC1_L_00021017-02
1 10065U 23448FZ  26075.70028935  .00000000  00000+0  00000-0 0  9996
2 10065  75.0000 192.0000 0000000   0.0000 282.0000 15.80155680    10
CTC1_L_00021017-03
1 10066U 25867FH  26075.70028935  .00000000  00000+0  00000-0 0  9994
2 10066  75.0000 192.0000 0000000   0.0000  12.0000 15.80155680    12
CTC1_L_00021017-04
1 10067U 26666CM  26075.70028935  .00000000  00000+0  00000-0 0  9993
2 10067  75.0000 192.0000 0000000   0.0000 102.0000 15.80155680    13
CTC1_L_00021018-01
1 10068U 24937IT  26075.70028935  .00000000  00000+0  00000-0 0  9993
2 10068  75.0000 204.0000 0000000   0.0000 204.0000 15.80155680    11
CTC1_L_00021018-02
1 10069U 22507SP  26075.70028935  .00000000  00000+0  00000-0 0  9995
2 10069  75.0000 204.0000 0000000   0.0000 294.0000 15.80155680    11
CTC1_L_00021018-03
1 10070U 24199RX  26075.70028935  .00000000  00000+0  00000-0 0  9996
2 10070  75.0000 204.0000 0000000   0.0000  24.0000 15.80155680    14
CTC1_L_00021018-04
1 10071U 22195DM  26075.70028935  .00000000  00000+0  00000-0 0  9991
2 10071  75.0000 204.0000 0000000   0.0000 114.0000 15.80155680    15
CTC1_L_00021019-01
1 10072U 25534ON  26075.70028935  .00000000  00000+0  00000-0 0  9992
2 10072  75.0000 216.0000 0000000   0.0000 216.0000 15.80155680    12
CTC1_L_00021019-02
1 10073U 23664GD  26075.70028935  .00000000  00000+0  00000-0 0  9995
2 10073  75.0000 216.0000 0000000   0.0000 306.0000 15.80155680    13
CTC1_L_00021019-03
1 10074U 23508NS  26075.70028935  .00000000  00000+0  00000-0 0  9993
2 10074  75.0000 216.0000 0000000   0.0000  36.0000 15.80155680    14
CTC1_L_00021019-04
1 10075U 24705AG  26075.70028935  .00000000  00000+0  00000-0 0  9994
2 10075  75.0000 216.0000 0000000   0.0000 126.0000 15.80155680    15
CTC1_L_00021020-01
1 10076U 26546VM  26075.70028935  .00000000  00000+0  00000-0 0  9990
2 10076  75.0000 228.0000 0000000   0.0000 228.0000 15.80155680    12
CTC1_L_00021020-02
1 10077U 23552KN  26075.70028935  .00000000  00000+0  00000-0 0  9995
2 10077  75.0000 228.0000 0000000   0.0000 318.0000 15.80155680    13
CTC1_L_00021020-03
1 10078U 26612QO  26075.70028935  .00000000  00000+0  00000-0 0  9996
2 10078  75.0000 228.0000 0000000   0.0000  48.0000 15.80155680    14
CTC1_L_00021020-04
1 10079U 25260UC  26075.70028935  .00000000  00000+0  00000-0 0  9995
2 10079  75.0000 228.0000 0000000   0.0000 138.0000 15.80155680    15
CTC1_L_00021021-01
1 10080U 23572LT  26075.70028935  .00000000  00000+0  00000-0 0  9991
2 10080  75.0000 240.0000 0000000   0.0000 240.0000 15.80155680    15
CTC1_L_00021021-02
1 10081U 25090MQ  26075.70028935  .00000000  00000+0  00000-0 0  9999
2 10081  75.0000 240.0000 0000000   0.0000 330.0000 15.80155680    16
CTC1_L_00021021-03
1 10082U 22943XO  26075.70028935  .00000000  00000+0  00000-0 0  9994
2 10082  75.0000 240.0000 0000000   0.0000  60.0000 15.80155680    17
CTC1_L_00021021-04
1 10083U 26914OH  26075.70028935  .00000000  00000+0  00000-0 0  9997
2 10083  75.0000 240.0000 0000000   0.0000 150.0000 15.80155680    18
CTC1_L_00021022-01
1 10084U 24914PC  26075.70028935  .00000000  00000+0  00000-0 0  9996
2 10084  75.0000 252.0000 0000000   0.0000 252.0000 15.80155680    15
CTC1_L_00021022-02
1 10085U 22331VY  26075.70028935  .00000000  00000+0  00000-0 0  9998
2 10085  75.0000 252.0000 0000000   0.0000 342.0000 15.80155680    16
CTC1_L_00021022-03
1 10086U 22342YC  26075.70028935  .00000000  00000+0  00000-0 0  9991
2 10086  75.0000 252.0000 0000000   0.0000  72.0000 15.80155680    17
CTC1_L_00021022-04
1 10087U 22905DR  26075.70028935  .00000000  00000+0  00000-0 0  9997
2 10087  75.0000 252.0000 0000000   0.0000 162.0000 15.80155680    18
CTC1_L_00021023-01
1 10088U 23115GL  26075.70028935  .00000000  00000+0  00000-0 0  9992
2 10088  75.0000 264.0000 0000000   0.0000 264.0000 15.80155680    15
CTC1_L_00021023-02
1 10089U 23077RE  26075.70028935  .00000000  00000+0  00000-0 0  9990
2 10089  75.0000 264.0000 0000000   0.0000 354.0000 15.80155680    16
CTC1_L_00021023-03
1 10090U 24859NP  26075.70028935  .00000000  00000+0  00000-0 0  9991
2 10090  75.0000 264.0000 0000000   0.0000  84.0000 15.80155680    18
CTC1_L_00021023-04
1 10091U 22754GG  26075.70028935  .00000000  00000+0  00000-0 0  9994
2 10091  75.0000 264.0000 0000000   0.0000 174.0000 15.80155680    19
CTC1_L_00021024-01
1 10092U 23177TF  26075.70028935  .00000000  00000+0  00000-0 0  9995
2 10092  75.0000 276.0000 0000000   0.0000 276.0000 15.80155680    16
CTC1_L_00021024-02
1 10093U 25218KO  26075.70028935  .00000000  00000+0  00000-0 0  9994
2 10093  75.0000 276.0000 0000000   0.0000   6.0000 15.80155680    18
CTC1_L_00021024-03
1 10094U 22835X   26075.70028935  .00000000  00000+0  00000-0 0  9997
2 10094  75.0000 276.0000 0000000   0.0000  96.0000 15.80155680    18
CTC1_L_00021024-04
1 10095U 25194WY  26075.70028935  .00000000  00000+0  00000-0 0  9999
2 10095  75.0000 276.0000 0000000   0.0000 186.0000 15.80155680    19
CTC1_L_00021025-01
1 10096U 26692EZ  26075.70028935  .00000000  00000+0  00000-0 0  9994
2 10096  75.0000 288.0000 0000000   0.0000 288.0000 15.80155680    16
CTC1_L_00021025-02
1 10097U 23398PY  26075.70028935  .00000000  00000+0  00000-0 0  9995
2 10097  75.0000 288.0000 0000000   0.0000  18.0000 15.80155680    18
CTC1_L_00021025-03
1 10098U 23745EZ  26075.70028935  .00000000  00000+0  00000-0 0  9992
2 10098  75.0000 288.0000 0000000   0.0000 108.0000 15.80155680    19
CTC1_L_00021025-04
1 10099U 25774EL  26075.70028935  .00000000  00000+0  00000-0 0  9997
2 10099  75.0000 288.0000 0000000   0.0000 198.0000 15.80155680    19
CTC1_L_00021026-01
1 10100U 25837ST  26075.70028935  .00000000  00000+0  00000-0 0  9990
2 10100  75.0000 300.0000 0000000   0.0000 300.0000 15.80155680    12
CTC1_L_00021026-02
1 10101U 22460JL  26075.70028935  .00000000  00000+0  00000-0 0  9990
2 10101  75.0000 300.0000 0000000   0.0000  30.0000 15.80155680    13
CTC1_L_00021026-03
1 10102U 23602SA  26075.70028935  .00000000  00000+0  00000-0 0  9990
2 10102  75.0000 300.0000 0000000   0.0000 120.0000 15.80155680    14
CTC1_L_00021026-04
1 10103U 26206LX  26075.70028935  .00000000  00000+0  00000-0 0  9994
2 10103  75.0000 300.0000 0000000   0.0000 210.0000 15.80155680    15
CTC1_L_00021027-01
1 10104U 26549GM  26075.70028935  .00000000  00000+0  00000-0 0  9995
2 10104  75.0000 312.0000 0000000   0.0000 312.0000 15.80155680    12
CTC1_L_00021027-02
1 10105U 22419QN  26075.70028935  .00000000  00000+0  00000-0 0  9998
2 10105  75.0000 312.0000 0000000   0.0000  42.0000 15.80155680    13
CTC1_L_00021027-03
1 10106U 26712IS  26075.70028935  .00000000  00000+0  00000-0 0  9999
2 10106  75.0000 312.0000 0000000   0.0000 132.0000 15.80155680    14
CTC1_L_00021027-04
1 10107U 25084PY  26075.70028935  .00000000  00000+0  00000-0 0  9991
2 10107  75.0000 312.0000 0000000   0.0000 222.0000 15.80155680    15
CTC1_L_00021028-01
1 10108U 22814BN  26075.70028935  .00000000  00000+0  00000-0 0  9990
2 10108  75.0000 324.0000 0000000   0.0000 324.0000 15.80155680    12
CTC1_L_00021028-02
1 10109U 25977MD  26075.70028935  .00000000  00000+0  00000-0 0  9994
2 10109  75.0000 324.0000 0000000   0.0000  54.0000 15.80155680    13
CTC1_L_00021028-03
1 10110U 25361Q   26075.70028935  .00000000  00000+0  00000-0 0  9993
2 10110  75.0000 324.0000 0000000   0.0000 144.0000 15.80155680    15
CTC1_L_00021028-04
1 10111U 22154RE  26075.70028935  .00000000  00000+0  00000-0 0  9991
2 10111  75.0000 324.0000 0000000   0.0000 234.0000 15.80155680    16
CTC1_L_00021029-01
1 10112U 23945QY  26075.70028935  .00000000  00000+0  00000-0 0  9991
2 10112  75.0000 336.0000 0000000   0.0000 336.0000 15.80155680    13
CTC1_L_00021029-02
1 10113U 24707WA  26075.70028935  .00000000  00000+0  00000-0 0  9999
2 10113  75.0000 336.0000 0000000   0.0000  66.0000 15.80155680    14
CTC1_L_00021029-03
1 10114U 25589DE  26075.70028935  .00000000  00000+0  00000-0 0  9999
2 10114  75.0000 336.0000 0000000   0.0000 156.0000 15.80155680    15
CTC1_L_00021029-04
1 10115U 25518BT  26075.70028935  .00000000  00000+0  00000-0 0  9992
2 10115  75.0000 336.0000 0000000   0.0000 246.0000 15.80155680    16
CTC1_L_00021030-01
1 10116U 26463IZ  26075.70028935  .00000000  00000+0  00000-0 0  9993
2 10116  75.0000 348.0000 0000000   0.0000 348.0000 15.80155680    13
CTC1_L_00021030-02
1 10117U 26444LH  26075.70028935  .00000000  00000+0  00000-0 0  9993
2 10117  75.0000 348.0000 0000000   0.0000  78.0000 15.80155680    14
CTC1_L_00021030-03
1 10118U 26469TQ  26075.70028935  .00000000  00000+0  00000-0 0  9991
2 10118  75.0000 348.0000 0000000   0.0000 168.0000 15.80155680    15
CTC1_L_00021030-04
1 10119U 25953XR  26075.70028935  .00000000  00000+0  00000-0 0  9999
2 10119  75.0000 348.0000 0000000   0.0000 258.0000 15.80155680    16
